{
  "type": "FeatureCollection",
  "crs": {
    "type": "name",
    "properties": {
      "name": "urn:ogc:def:crs:OGC:1.3:CRS84"
    }
  },
  "features": [
    {
      "type": "Feature",
      "id": "TC-LIVE-01",
      "geometry": {
        "type": "Point",
        "coordinates": [
          65.8,
          21.4
        ]
      },
      "properties": {
        "hazard_type": "Cyclone / Tropical Cyclone",
        "category": "ATMOSPHERIC",
        "location_name": "Arabian Sea / North Indian Ocean: Cyclone ASNA",
        "event_name": "Cyclone ASNA",
        "country": "India / Pakistan Coastal Waters",
        "severity_metric": "Category 2 Severe Cyclonic Storm (165 km/h)",
        "wind_speed_kmh": 165,
        "pressure_hpa": 974,
        "alert_level": "CRITICAL",
        "source": "IMD Regional Specialised Meteorological Centre (RSMC) New Delhi",
        "timestamp": "2026-09-21T15:04:27.048142+00:00"
      }
    },
    {
      "type": "Feature",
      "id": "TC-LIVE-02",
      "geometry": {
        "type": "Point",
        "coordinates": [
          130.8,
          30.1
        ]
      },
      "properties": {
        "hazard_type": "Cyclone / Tropical Cyclone",
        "category": "ATMOSPHERIC",
        "location_name": "Western Pacific: Typhoon SHANSHAN",
        "event_name": "Typhoon SHANSHAN",
        "country": "Japan / East China Sea",
        "severity_metric": "Category 4 Very Strong Typhoon (215 km/h)",
        "wind_speed_kmh": 215,
        "pressure_hpa": 935,
        "alert_level": "CRITICAL",
        "source": "Japan Meteorological Agency (JMA) / JTWC",
        "timestamp": "2026-09-21T15:04:27.048237+00:00"
      }
    },
    {
      "type": "Feature",
      "id": "TC-LIVE-03",
      "geometry": {
        "type": "Point",
        "coordinates": [
          -85.4,
          23.8
        ]
      },
      "properties": {
        "hazard_type": "Cyclone / Tropical Cyclone",
        "category": "ATMOSPHERIC",
        "location_name": "Gulf of Mexico: Tropical Storm HELENE",
        "event_name": "Tropical Storm HELENE",
        "country": "USA / Cuba / Mexico",
        "severity_metric": "Tropical Storm (110 km/h)",
        "wind_speed_kmh": 110,
        "pressure_hpa": 988,
        "alert_level": "HIGH",
        "source": "NOAA National Hurricane Center (NHC) Miami",
        "timestamp": "2026-09-21T15:04:27.048248+00:00"
      }
    }
  ]
}