{
  "type": "FeatureCollection",
  "crs": {
    "type": "name",
    "properties": {
      "name": "urn:ogc:def:crs:OGC:1.3:CRS84"
    }
  },
  "features": [
    {
      "type": "Feature",
      "id": "METEO-RAIN-NAIROBI",
      "geometry": {
        "type": "Point",
        "coordinates": [
          36.8219,
          -1.2921
        ]
      },
      "properties": {
        "hazard_type": "Active Rainfall",
        "category": "HYDROLOGICAL",
        "location_name": "Nairobi, Kenya",
        "city": "Nairobi",
        "country": "Kenya",
        "severity_metric": "0.2 mm/hr",
        "rain_mm_hr": 0.2,
        "wind_speed_kmh": 12.0,
        "weather_code": 53,
        "alert_level": "LOW",
        "is_active_rain": true,
        "source": "Open-Meteo Global Forecasting Model",
        "timestamp": "2026-09-21T17:30"
      }
    },
    {
      "type": "Feature",
      "id": "METEO-RAIN-NEW-YORK",
      "geometry": {
        "type": "Point",
        "coordinates": [
          -74.006,
          40.7128
        ]
      },
      "properties": {
        "hazard_type": "Active Rainfall",
        "category": "HYDROLOGICAL",
        "location_name": "New York, USA",
        "city": "New York",
        "country": "USA",
        "severity_metric": "0.0 mm/hr (Clear)",
        "rain_mm_hr": 0.0,
        "wind_speed_kmh": 16.1,
        "weather_code": 3,
        "alert_level": "LOW",
        "is_active_rain": false,
        "source": "Open-Meteo Global Forecasting Model",
        "timestamp": "2026-09-21T10:30"
      }
    },
    {
      "type": "Feature",
      "id": "METEO-RAIN-JAKARTA",
      "geometry": {
        "type": "Point",
        "coordinates": [
          106.8456,
          -6.2088
        ]
      },
      "properties": {
        "hazard_type": "Active Rainfall",
        "category": "HYDROLOGICAL",
        "location_name": "Jakarta, Indonesia",
        "city": "Jakarta",
        "country": "Indonesia",
        "severity_metric": "0.0 mm/hr (Clear)",
        "rain_mm_hr": 0.0,
        "wind_speed_kmh": 4.8,
        "weather_code": 0,
        "alert_level": "LOW",
        "is_active_rain": false,
        "source": "Open-Meteo Global Forecasting Model",
        "timestamp": "2026-09-21T21:30"
      }
    },
    {
      "type": "Feature",
      "id": "METEO-RAIN-TOKYO",
      "geometry": {
        "type": "Point",
        "coordinates": [
          139.6503,
          35.6762
        ]
      },
      "properties": {
        "hazard_type": "Active Rainfall",
        "category": "HYDROLOGICAL",
        "location_name": "Tokyo, Japan",
        "city": "Tokyo",
        "country": "Japan",
        "severity_metric": "0.0 mm/hr (Clear)",
        "rain_mm_hr": 0.0,
        "wind_speed_kmh": 10.5,
        "weather_code": 2,
        "alert_level": "LOW",
        "is_active_rain": false,
        "source": "Open-Meteo Global Forecasting Model",
        "timestamp": "2026-09-21T23:30"
      }
    },
    {
      "type": "Feature",
      "id": "METEO-RAIN-LONDON",
      "geometry": {
        "type": "Point",
        "coordinates": [
          -0.1278,
          51.5074
        ]
      },
      "properties": {
        "hazard_type": "Active Rainfall",
        "category": "HYDROLOGICAL",
        "location_name": "London, United Kingdom",
        "city": "London",
        "country": "United Kingdom",
        "severity_metric": "0.0 mm/hr (Clear)",
        "rain_mm_hr": 0.0,
        "wind_speed_kmh": 5.8,
        "weather_code": 0,
        "alert_level": "LOW",
        "is_active_rain": false,
        "source": "Open-Meteo Global Forecasting Model",
        "timestamp": "2026-09-21T15:30"
      }
    },
    {
      "type": "Feature",
      "id": "METEO-RAIN-MIAMI",
      "geometry": {
        "type": "Point",
        "coordinates": [
          -80.1918,
          25.7617
        ]
      },
      "properties": {
        "hazard_type": "Active Rainfall",
        "category": "HYDROLOGICAL",
        "location_name": "Miami, USA",
        "city": "Miami",
        "country": "USA",
        "severity_metric": "0.0 mm/hr (Clear)",
        "rain_mm_hr": 0.0,
        "wind_speed_kmh": 3.3,
        "weather_code": 0,
        "alert_level": "LOW",
        "is_active_rain": false,
        "source": "Open-Meteo Global Forecasting Model",
        "timestamp": "2026-09-21T10:30"
      }
    },
    {
      "type": "Feature",
      "id": "METEO-RAIN-MUMBAI",
      "geometry": {
        "type": "Point",
        "coordinates": [
          72.8777,
          19.076
        ]
      },
      "properties": {
        "hazard_type": "Active Rainfall",
        "category": "HYDROLOGICAL",
        "location_name": "Mumbai, India",
        "city": "Mumbai",
        "country": "India",
        "severity_metric": "0.1 mm/hr",
        "rain_mm_hr": 0.1,
        "wind_speed_kmh": 2.2,
        "weather_code": 51,
        "alert_level": "LOW",
        "is_active_rain": false,
        "source": "Open-Meteo Global Forecasting Model",
        "timestamp": "2026-09-21T20:00"
      }
    },
    {
      "type": "Feature",
      "id": "METEO-RAIN-MANILA",
      "geometry": {
        "type": "Point",
        "coordinates": [
          120.9842,
          14.5995
        ]
      },
      "properties": {
        "hazard_type": "Active Rainfall",
        "category": "HYDROLOGICAL",
        "location_name": "Manila, Philippines",
        "city": "Manila",
        "country": "Philippines",
        "severity_metric": "0.0 mm/hr (Clear)",
        "rain_mm_hr": 0.0,
        "wind_speed_kmh": 0.9,
        "weather_code": 0,
        "alert_level": "LOW",
        "is_active_rain": false,
        "source": "Open-Meteo Global Forecasting Model",
        "timestamp": "2026-09-21T22:30"
      }
    },
    {
      "type": "Feature",
      "id": "METEO-RAIN-RIO-DE-JANEIRO",
      "geometry": {
        "type": "Point",
        "coordinates": [
          -43.1729,
          -22.9068
        ]
      },
      "properties": {
        "hazard_type": "Active Rainfall",
        "category": "HYDROLOGICAL",
        "location_name": "Rio de Janeiro, Brazil",
        "city": "Rio de Janeiro",
        "country": "Brazil",
        "severity_metric": "0.0 mm/hr (Clear)",
        "rain_mm_hr": 0.0,
        "wind_speed_kmh": 18.5,
        "weather_code": 3,
        "alert_level": "LOW",
        "is_active_rain": false,
        "source": "Open-Meteo Global Forecasting Model",
        "timestamp": "2026-09-21T11:30"
      }
    },
    {
      "type": "Feature",
      "id": "METEO-RAIN-SAN-FRANCISCO",
      "geometry": {
        "type": "Point",
        "coordinates": [
          -122.4194,
          37.7749
        ]
      },
      "properties": {
        "hazard_type": "Active Rainfall",
        "category": "HYDROLOGICAL",
        "location_name": "San Francisco, USA",
        "city": "San Francisco",
        "country": "USA",
        "severity_metric": "0.0 mm/hr (Clear)",
        "rain_mm_hr": 0.0,
        "wind_speed_kmh": 6.1,
        "weather_code": 3,
        "alert_level": "LOW",
        "is_active_rain": false,
        "source": "Open-Meteo Global Forecasting Model",
        "timestamp": "2026-09-21T07:30"
      }
    },
    {
      "type": "Feature",
      "id": "METEO-RAIN-DELHI",
      "geometry": {
        "type": "Point",
        "coordinates": [
          77.209,
          28.6139
        ]
      },
      "properties": {
        "hazard_type": "Active Rainfall",
        "category": "HYDROLOGICAL",
        "location_name": "Delhi, India",
        "city": "Delhi",
        "country": "India",
        "severity_metric": "0.0 mm/hr (Clear)",
        "rain_mm_hr": 0.0,
        "wind_speed_kmh": 3.3,
        "weather_code": 0,
        "alert_level": "LOW",
        "is_active_rain": false,
        "source": "Open-Meteo Global Forecasting Model",
        "timestamp": "2026-09-21T20:00"
      }
    },
    {
      "type": "Feature",
      "id": "METEO-RAIN-REYKJAVIK",
      "geometry": {
        "type": "Point",
        "coordinates": [
          -21.9426,
          64.1466
        ]
      },
      "properties": {
        "hazard_type": "Active Rainfall",
        "category": "HYDROLOGICAL",
        "location_name": "Reykjavik, Iceland",
        "city": "Reykjavik",
        "country": "Iceland",
        "severity_metric": "0.0 mm/hr (Clear)",
        "rain_mm_hr": 0.0,
        "wind_speed_kmh": 31.0,
        "weather_code": 3,
        "alert_level": "LOW",
        "is_active_rain": false,
        "source": "Open-Meteo Global Forecasting Model",
        "timestamp": "2026-09-21T14:30"
      }
    },
    {
      "type": "Feature",
      "id": "METEO-RAIN-KATHMANDU",
      "geometry": {
        "type": "Point",
        "coordinates": [
          85.324,
          27.7172
        ]
      },
      "properties": {
        "hazard_type": "Active Rainfall",
        "category": "HYDROLOGICAL",
        "location_name": "Kathmandu, Nepal",
        "city": "Kathmandu",
        "country": "Nepal",
        "severity_metric": "0.0 mm/hr (Clear)",
        "rain_mm_hr": 0.0,
        "wind_speed_kmh": 1.7,
        "weather_code": 2,
        "alert_level": "LOW",
        "is_active_rain": false,
        "source": "Open-Meteo Global Forecasting Model",
        "timestamp": "2026-09-21T20:15"
      }
    },
    {
      "type": "Feature",
      "id": "METEO-RAIN-QUITO",
      "geometry": {
        "type": "Point",
        "coordinates": [
          -78.4678,
          -0.1807
        ]
      },
      "properties": {
        "hazard_type": "Active Rainfall",
        "category": "HYDROLOGICAL",
        "location_name": "Quito, Ecuador",
        "city": "Quito",
        "country": "Ecuador",
        "severity_metric": "0.0 mm/hr (Clear)",
        "rain_mm_hr": 0.0,
        "wind_speed_kmh": 8.8,
        "weather_code": 3,
        "alert_level": "LOW",
        "is_active_rain": false,
        "source": "Open-Meteo Global Forecasting Model",
        "timestamp": "2026-09-21T09:30"
      }
    },
    {
      "type": "Feature",
      "id": "METEO-RAIN-SYDNEY",
      "geometry": {
        "type": "Point",
        "coordinates": [
          151.2093,
          -33.8688
        ]
      },
      "properties": {
        "hazard_type": "Active Rainfall",
        "category": "HYDROLOGICAL",
        "location_name": "Sydney, Australia",
        "city": "Sydney",
        "country": "Australia",
        "severity_metric": "0.0 mm/hr (Clear)",
        "rain_mm_hr": 0.0,
        "wind_speed_kmh": 16.8,
        "weather_code": 3,
        "alert_level": "LOW",
        "is_active_rain": false,
        "source": "Open-Meteo Global Forecasting Model",
        "timestamp": "2026-09-22T00:30"
      }
    },
    {
      "type": "Feature",
      "id": "METEO-RAIN-TAIPEI",
      "geometry": {
        "type": "Point",
        "coordinates": [
          121.5654,
          25.033
        ]
      },
      "properties": {
        "hazard_type": "Active Rainfall",
        "category": "HYDROLOGICAL",
        "location_name": "Taipei, Taiwan",
        "city": "Taipei",
        "country": "Taiwan",
        "severity_metric": "0.0 mm/hr (Clear)",
        "rain_mm_hr": 0.0,
        "wind_speed_kmh": 6.5,
        "weather_code": 0,
        "alert_level": "LOW",
        "is_active_rain": false,
        "source": "Open-Meteo Global Forecasting Model",
        "timestamp": "2026-09-21T22:30"
      }
    },
    {
      "type": "Feature",
      "id": "METEO-RAIN-HONOLULU",
      "geometry": {
        "type": "Point",
        "coordinates": [
          -157.8583,
          21.3069
        ]
      },
      "properties": {
        "hazard_type": "Active Rainfall",
        "category": "HYDROLOGICAL",
        "location_name": "Honolulu, USA (Hawaii)",
        "city": "Honolulu",
        "country": "USA (Hawaii)",
        "severity_metric": "0.0 mm/hr (Clear)",
        "rain_mm_hr": 0.0,
        "wind_speed_kmh": 16.9,
        "weather_code": 3,
        "alert_level": "LOW",
        "is_active_rain": false,
        "source": "Open-Meteo Global Forecasting Model",
        "timestamp": "2026-09-21T04:30"
      }
    },
    {
      "type": "Feature",
      "id": "METEO-RAIN-SANTIAGO",
      "geometry": {
        "type": "Point",
        "coordinates": [
          -70.6693,
          -33.4489
        ]
      },
      "properties": {
        "hazard_type": "Active Rainfall",
        "category": "HYDROLOGICAL",
        "location_name": "Santiago, Chile",
        "city": "Santiago",
        "country": "Chile",
        "severity_metric": "0.0 mm/hr (Clear)",
        "rain_mm_hr": 0.0,
        "wind_speed_kmh": 3.6,
        "weather_code": 1,
        "alert_level": "LOW",
        "is_active_rain": false,
        "source": "Open-Meteo Global Forecasting Model",
        "timestamp": "2026-09-21T11:30"
      }
    },
    {
      "type": "Feature",
      "id": "METEO-RAIN-AUCKLAND",
      "geometry": {
        "type": "Point",
        "coordinates": [
          174.7633,
          -36.8485
        ]
      },
      "properties": {
        "hazard_type": "Active Rainfall",
        "category": "HYDROLOGICAL",
        "location_name": "Auckland, New Zealand",
        "city": "Auckland",
        "country": "New Zealand",
        "severity_metric": "0.0 mm/hr (Clear)",
        "rain_mm_hr": 0.0,
        "wind_speed_kmh": 15.7,
        "weather_code": 3,
        "alert_level": "LOW",
        "is_active_rain": false,
        "source": "Open-Meteo Global Forecasting Model",
        "timestamp": "2026-09-22T02:30"
      }
    },
    {
      "type": "Feature",
      "id": "METEO-RAIN-BANGKOK",
      "geometry": {
        "type": "Point",
        "coordinates": [
          100.5018,
          13.7563
        ]
      },
      "properties": {
        "hazard_type": "Active Rainfall",
        "category": "HYDROLOGICAL",
        "location_name": "Bangkok, Thailand",
        "city": "Bangkok",
        "country": "Thailand",
        "severity_metric": "0.1 mm/hr",
        "rain_mm_hr": 0.1,
        "wind_speed_kmh": 1.5,
        "weather_code": 51,
        "alert_level": "LOW",
        "is_active_rain": false,
        "source": "Open-Meteo Global Forecasting Model",
        "timestamp": "2026-09-21T21:30"
      }
    },
    {
      "type": "Feature",
      "id": "METEO-RAIN-COLOMBO",
      "geometry": {
        "type": "Point",
        "coordinates": [
          79.8612,
          6.9271
        ]
      },
      "properties": {
        "hazard_type": "Active Rainfall",
        "category": "HYDROLOGICAL",
        "location_name": "Colombo, Sri Lanka",
        "city": "Colombo",
        "country": "Sri Lanka",
        "severity_metric": "0.1 mm/hr",
        "rain_mm_hr": 0.1,
        "wind_speed_kmh": 8.9,
        "weather_code": 51,
        "alert_level": "LOW",
        "is_active_rain": false,
        "source": "Open-Meteo Global Forecasting Model",
        "timestamp": "2026-09-21T20:00"
      }
    },
    {
      "type": "Feature",
      "id": "METEO-RAIN-SEOUL",
      "geometry": {
        "type": "Point",
        "coordinates": [
          126.978,
          37.5665
        ]
      },
      "properties": {
        "hazard_type": "Active Rainfall",
        "category": "HYDROLOGICAL",
        "location_name": "Seoul, South Korea",
        "city": "Seoul",
        "country": "South Korea",
        "severity_metric": "0.0 mm/hr (Clear)",
        "rain_mm_hr": 0.0,
        "wind_speed_kmh": 5.5,
        "weather_code": 0,
        "alert_level": "LOW",
        "is_active_rain": false,
        "source": "Open-Meteo Global Forecasting Model",
        "timestamp": "2026-09-21T23:30"
      }
    }
  ]
}