{
  "type": "FeatureCollection",
  "crs": {
    "type": "name",
    "properties": {
      "name": "urn:ogc:def:crs:OGC:1.3:CRS84"
    }
  },
  "features": [
    {
      "type": "Feature",
      "id": "VO-LIVE-01",
      "geometry": {
        "type": "Point",
        "coordinates": [
          105.423,
          -6.102
        ]
      },
      "properties": {
        "hazard_type": "Volcano",
        "category": "VOLCANIC",
        "location_name": "Indonesia: Anak Krakatau",
        "event_name": "Anak Krakatau Caldera",
        "country": "Indonesia",
        "severity_metric": "Alert Level: Orange (Strombolian Explosions)",
        "alert_level": "HIGH",
        "source": "PVMBG Indonesia / Smithsonian GVP",
        "timestamp": "2026-09-21T14:57:31.829899+00:00"
      }
    },
    {
      "type": "Feature",
      "id": "VO-LIVE-02",
      "geometry": {
        "type": "Point",
        "coordinates": [
          15.004,
          37.751
        ]
      },
      "properties": {
        "hazard_type": "Volcano",
        "category": "VOLCANIC",
        "location_name": "Italy: Mount Etna",
        "event_name": "Mount Etna Crater",
        "country": "Italy",
        "severity_metric": "Alert Level: Orange (Lava Fountaining)",
        "alert_level": "HIGH",
        "source": "INGV Catania / Smithsonian GVP",
        "timestamp": "2026-09-21T14:57:31.829905+00:00"
      }
    },
    {
      "type": "Feature",
      "id": "VO-LIVE-03",
      "geometry": {
        "type": "Point",
        "coordinates": [
          -22.06,
          63.88
        ]
      },
      "properties": {
        "hazard_type": "Volcano",
        "category": "VOLCANIC",
        "location_name": "Iceland: Reykjanes Sundhnukagigar",
        "event_name": "Sundhnukur Fissure",
        "country": "Iceland",
        "severity_metric": "Alert Level: Red (Active Effusive Fissure)",
        "alert_level": "CRITICAL",
        "source": "Icelandic Met Office (IMO)",
        "timestamp": "2026-09-21T14:57:31.829910+00:00"
      }
    },
    {
      "type": "Feature",
      "id": "VO-LIVE-04",
      "geometry": {
        "type": "Point",
        "coordinates": [
          130.557,
          31.593
        ]
      },
      "properties": {
        "hazard_type": "Volcano",
        "category": "VOLCANIC",
        "location_name": "Japan: Sakurajima",
        "event_name": "Sakurajima Minamidake",
        "country": "Japan",
        "severity_metric": "Alert Level: Orange (Ash Plume 2.4km)",
        "alert_level": "HIGH",
        "source": "Japan Meteorological Agency (JMA)",
        "timestamp": "2026-09-21T14:57:31.829940+00:00"
      }
    }
  ]
}